ORBCOMM FM37 [-]        
1 33064U 08031E   24057.07633611  .00002482  00000+0  38659-3 0  9992
2 33064  48.4398  85.0000 0005179 136.8413 256.3861 14.75958035843480
ORBCOMM FM40 [-]        
1 33065U 08031F   24056.94204181  .00003232  00000+0  48057-3 0  9991
2 33065  48.4423  75.7018 0006486 144.4806 291.5095 14.77186299843496
VESSELSAT 1 [-]         
1 37840U 11058C   24057.39516086  .00000449  00000+0  10084-3 0  9995
2 37840  19.9615  98.4151 0013683 343.6395  16.3567 14.11119416639103
ORBCOMM FM109 [+]       
1 40086U 14040A   24057.48719866  .00001350  00000+0  33928-3 0  9990
2 40086  47.0036 104.5232 0002881 282.8878  77.1685 14.56328454511530
ORBCOMM FM107 [+]       
1 40087U 14040B   24057.17864141  .00001377  00000+0  34526-3 0  9998
2 40087  47.0051 106.9326 0002341 258.4582 101.6040 14.56329816511564
ORBCOMM FM106 [-]       
1 40088U 14040C   24057.76451535  .00001923  00000+0  37437-3 0  9994
2 40088  47.0612 322.7360 0017873  15.2399 344.9026 14.66660338513684
ORBCOMM FM111 [-]       
1 40089U 14040D   24057.51138205  .00003947  00000+0  52405-3 0  9994
2 40089  47.0019 233.6262 0032330  79.0170 281.4359 14.81157552519447
ORBCOMM FM104 [-]       
1 40090U 14040E   24057.35000143  .00001067  00000+0  28418-3 0  9995
2 40090  47.0048 134.2276 0017385 190.9590 169.0918 14.54899328511149
