<?xml version="1.0" encoding="UTF-8"?>
<ndm xmlns:xsi="http://www.w3.org/2001/XMLSchema-instance" xsi:noNamespaceSchemaLocation="https://sanaregistry.org/r/ndmxml_unqualified/ndmxml-2.0.0-master-2.0.xsd">
<omm id="CCSDS_OMM_VERS" version="2.0">
<header><CREATION_DATE/><ORIGINATOR/></header><body><segment><metadata><OBJECT_NAME>ORBCOMM FM37 [-]</OBJECT_NAME><OBJECT_ID>2008-031E</OBJECT_ID><CENTER_NAME>EARTH</CENTER_NAME><REF_FRAME>TEME</REF_FRAME><TIME_SYSTEM>UTC</TIME_SYSTEM><MEAN_ELEMENT_THEORY>SGP4</MEAN_ELEMENT_THEORY></metadata><data><meanElements><EPOCH>2024-02-26T01:49:55.439904</EPOCH><MEAN_MOTION>14.75958035</MEAN_MOTION><ECCENTRICITY>.0005179</ECCENTRICITY><INCLINATION>48.4398</INCLINATION><RA_OF_ASC_NODE>85.0000</RA_OF_ASC_NODE><ARG_OF_PERICENTER>136.8413</ARG_OF_PERICENTER><MEAN_ANOMALY>256.3861</MEAN_ANOMALY></meanElements><tleParameters><EPHEMERIS_TYPE>0</EPHEMERIS_TYPE><CLASSIFICATION_TYPE>U</CLASSIFICATION_TYPE><NORAD_CAT_ID>33064</NORAD_CAT_ID><ELEMENT_SET_NO>999</ELEMENT_SET_NO><REV_AT_EPOCH>84348</REV_AT_EPOCH><BSTAR>.38659E-3</BSTAR><MEAN_MOTION_DOT>.2482E-4</MEAN_MOTION_DOT><MEAN_MOTION_DDOT>0</MEAN_MOTION_DDOT></tleParameters></data></segment></body></omm>
<omm id="CCSDS_OMM_VERS" version="2.0">
<header><CREATION_DATE/><ORIGINATOR/></header><body><segment><metadata><OBJECT_NAME>ORBCOMM FM40 [-]</OBJECT_NAME><OBJECT_ID>2008-031F</OBJECT_ID><CENTER_NAME>EARTH</CENTER_NAME><REF_FRAME>TEME</REF_FRAME><TIME_SYSTEM>UTC</TIME_SYSTEM><MEAN_ELEMENT_THEORY>SGP4</MEAN_ELEMENT_THEORY></metadata><data><meanElements><EPOCH>2024-02-25T22:36:32.412384</EPOCH><MEAN_MOTION>14.77186299</MEAN_MOTION><ECCENTRICITY>.0006486</ECCENTRICITY><INCLINATION>48.4423</INCLINATION><RA_OF_ASC_NODE>75.7018</RA_OF_ASC_NODE><ARG_OF_PERICENTER>144.4806</ARG_OF_PERICENTER><MEAN_ANOMALY>291.5095</MEAN_ANOMALY></meanElements><tleParameters><EPHEMERIS_TYPE>0</EPHEMERIS_TYPE><CLASSIFICATION_TYPE>U</CLASSIFICATION_TYPE><NORAD_CAT_ID>33065</NORAD_CAT_ID><ELEMENT_SET_NO>999</ELEMENT_SET_NO><REV_AT_EPOCH>84349</REV_AT_EPOCH><BSTAR>.48057E-3</BSTAR><MEAN_MOTION_DOT>.3232E-4</MEAN_MOTION_DOT><MEAN_MOTION_DDOT>0</MEAN_MOTION_DDOT></tleParameters></data></segment></body></omm>
<omm id="CCSDS_OMM_VERS" version="2.0">
<header><CREATION_DATE/><ORIGINATOR/></header><body><segment><metadata><OBJECT_NAME>VESSELSAT 1 [-]</OBJECT_NAME><OBJECT_ID>2011-058C</OBJECT_ID><CENTER_NAME>EARTH</CENTER_NAME><REF_FRAME>TEME</REF_FRAME><TIME_SYSTEM>UTC</TIME_SYSTEM><MEAN_ELEMENT_THEORY>SGP4</MEAN_ELEMENT_THEORY></metadata><data><meanElements><EPOCH>2024-02-26T09:29:01.898304</EPOCH><MEAN_MOTION>14.11119416</MEAN_MOTION><ECCENTRICITY>.0013683</ECCENTRICITY><INCLINATION>19.9615</INCLINATION><RA_OF_ASC_NODE>98.4151</RA_OF_ASC_NODE><ARG_OF_PERICENTER>343.6395</ARG_OF_PERICENTER><MEAN_ANOMALY>16.3567</MEAN_ANOMALY></meanElements><tleParameters><EPHEMERIS_TYPE>0</EPHEMERIS_TYPE><CLASSIFICATION_TYPE>U</CLASSIFICATION_TYPE><NORAD_CAT_ID>37840</NORAD_CAT_ID><ELEMENT_SET_NO>999</ELEMENT_SET_NO><REV_AT_EPOCH>63910</REV_AT_EPOCH><BSTAR>.10084E-3</BSTAR><MEAN_MOTION_DOT>.449E-5</MEAN_MOTION_DOT><MEAN_MOTION_DDOT>0</MEAN_MOTION_DDOT></tleParameters></data></segment></body></omm>
<omm id="CCSDS_OMM_VERS" version="2.0">
<header><CREATION_DATE/><ORIGINATOR/></header><body><segment><metadata><OBJECT_NAME>ORBCOMM FM109 [+]</OBJECT_NAME><OBJECT_ID>2014-040A</OBJECT_ID><CENTER_NAME>EARTH</CENTER_NAME><REF_FRAME>TEME</REF_FRAME><TIME_SYSTEM>UTC</TIME_SYSTEM><MEAN_ELEMENT_THEORY>SGP4</MEAN_ELEMENT_THEORY></metadata><data><meanElements><EPOCH>2024-02-26T11:41:33.964224</EPOCH><MEAN_MOTION>14.56328454</MEAN_MOTION><ECCENTRICITY>.0002881</ECCENTRICITY><INCLINATION>47.0036</INCLINATION><RA_OF_ASC_NODE>104.5232</RA_OF_ASC_NODE><ARG_OF_PERICENTER>282.8878</ARG_OF_PERICENTER><MEAN_ANOMALY>77.1685</MEAN_ANOMALY></meanElements><tleParameters><EPHEMERIS_TYPE>0</EPHEMERIS_TYPE><CLASSIFICATION_TYPE>U</CLASSIFICATION_TYPE><NORAD_CAT_ID>40086</NORAD_CAT_ID><ELEMENT_SET_NO>999</ELEMENT_SET_NO><REV_AT_EPOCH>51153</REV_AT_EPOCH><BSTAR>.33928E-3</BSTAR><MEAN_MOTION_DOT>.135E-4</MEAN_MOTION_DOT><MEAN_MOTION_DDOT>0</MEAN_MOTION_DDOT></tleParameters></data></segment></body></omm>
<omm id="CCSDS_OMM_VERS" version="2.0">
<header><CREATION_DATE/><ORIGINATOR/></header><body><segment><metadata><OBJECT_NAME>ORBCOMM FM107 [+]</OBJECT_NAME><OBJECT_ID>2014-040B</OBJECT_ID><CENTER_NAME>EARTH</CENTER_NAME><REF_FRAME>TEME</REF_FRAME><TIME_SYSTEM>UTC</TIME_SYSTEM><MEAN_ELEMENT_THEORY>SGP4</MEAN_ELEMENT_THEORY></metadata><data><meanElements><EPOCH>2024-02-26T04:17:14.617824</EPOCH><MEAN_MOTION>14.56329816</MEAN_MOTION><ECCENTRICITY>.0002341</ECCENTRICITY><INCLINATION>47.0051</INCLINATION><RA_OF_ASC_NODE>106.9326</RA_OF_ASC_NODE><ARG_OF_PERICENTER>258.4582</ARG_OF_PERICENTER><MEAN_ANOMALY>101.6040</MEAN_ANOMALY></meanElements><tleParameters><EPHEMERIS_TYPE>0</EPHEMERIS_TYPE><CLASSIFICATION_TYPE>U</CLASSIFICATION_TYPE><NORAD_CAT_ID>40087</NORAD_CAT_ID><ELEMENT_SET_NO>999</ELEMENT_SET_NO><REV_AT_EPOCH>51156</REV_AT_EPOCH><BSTAR>.34526E-3</BSTAR><MEAN_MOTION_DOT>.1377E-4</MEAN_MOTION_DOT><MEAN_MOTION_DDOT>0</MEAN_MOTION_DDOT></tleParameters></data></segment></body></omm>
<omm id="CCSDS_OMM_VERS" version="2.0">
<header><CREATION_DATE/><ORIGINATOR/></header><body><segment><metadata><OBJECT_NAME>ORBCOMM FM106 [-]</OBJECT_NAME><OBJECT_ID>2014-040C</OBJECT_ID><CENTER_NAME>EARTH</CENTER_NAME><REF_FRAME>TEME</REF_FRAME><TIME_SYSTEM>UTC</TIME_SYSTEM><MEAN_ELEMENT_THEORY>SGP4</MEAN_ELEMENT_THEORY></metadata><data><meanElements><EPOCH>2024-02-26T18:20:54.126240</EPOCH><MEAN_MOTION>14.66660338</MEAN_MOTION><ECCENTRICITY>.0017873</ECCENTRICITY><INCLINATION>47.0612</INCLINATION><RA_OF_ASC_NODE>322.7360</RA_OF_ASC_NODE><ARG_OF_PERICENTER>15.2399</ARG_OF_PERICENTER><MEAN_ANOMALY>344.9026</MEAN_ANOMALY></meanElements><tleParameters><EPHEMERIS_TYPE>0</EPHEMERIS_TYPE><CLASSIFICATION_TYPE>U</CLASSIFICATION_TYPE><NORAD_CAT_ID>40088</NORAD_CAT_ID><ELEMENT_SET_NO>999</ELEMENT_SET_NO><REV_AT_EPOCH>51368</REV_AT_EPOCH><BSTAR>.37437E-3</BSTAR><MEAN_MOTION_DOT>.1923E-4</MEAN_MOTION_DOT><MEAN_MOTION_DDOT>0</MEAN_MOTION_DDOT></tleParameters></data></segment></body></omm>
<omm id="CCSDS_OMM_VERS" version="2.0">
<header><CREATION_DATE/><ORIGINATOR/></header><body><segment><metadata><OBJECT_NAME>ORBCOMM FM111 [-]</OBJECT_NAME><OBJECT_ID>2014-040D</OBJECT_ID><CENTER_NAME>EARTH</CENTER_NAME><REF_FRAME>TEME</REF_FRAME><TIME_SYSTEM>UTC</TIME_SYSTEM><MEAN_ELEMENT_THEORY>SGP4</MEAN_ELEMENT_THEORY></metadata><data><meanElements><EPOCH>2024-02-26T12:16:23.409120</EPOCH><MEAN_MOTION>14.81157552</MEAN_MOTION><ECCENTRICITY>.003233</ECCENTRICITY><INCLINATION>47.0019</INCLINATION><RA_OF_ASC_NODE>233.6262</RA_OF_ASC_NODE><ARG_OF_PERICENTER>79.0170</ARG_OF_PERICENTER><MEAN_ANOMALY>281.4359</MEAN_ANOMALY></meanElements><tleParameters><EPHEMERIS_TYPE>0</EPHEMERIS_TYPE><CLASSIFICATION_TYPE>U</CLASSIFICATION_TYPE><NORAD_CAT_ID>40089</NORAD_CAT_ID><ELEMENT_SET_NO>999</ELEMENT_SET_NO><REV_AT_EPOCH>51944</REV_AT_EPOCH><BSTAR>.52405E-3</BSTAR><MEAN_MOTION_DOT>.3947E-4</MEAN_MOTION_DOT><MEAN_MOTION_DDOT>0</MEAN_MOTION_DDOT></tleParameters></data></segment></body></omm>
<omm id="CCSDS_OMM_VERS" version="2.0">
<header><CREATION_DATE/><ORIGINATOR/></header><body><segment><metadata><OBJECT_NAME>ORBCOMM FM104 [-]</OBJECT_NAME><OBJECT_ID>2014-040E</OBJECT_ID><CENTER_NAME>EARTH</CENTER_NAME><REF_FRAME>TEME</REF_FRAME><TIME_SYSTEM>UTC</TIME_SYSTEM><MEAN_ELEMENT_THEORY>SGP4</MEAN_ELEMENT_THEORY></metadata><data><meanElements><EPOCH>2024-02-26T08:24:00.123552</EPOCH><MEAN_MOTION>14.54899328</MEAN_MOTION><ECCENTRICITY>.0017385</ECCENTRICITY><INCLINATION>47.0048</INCLINATION><RA_OF_ASC_NODE>134.2276</RA_OF_ASC_NODE><ARG_OF_PERICENTER>190.9590</ARG_OF_PERICENTER><MEAN_ANOMALY>169.0918</MEAN_ANOMALY></meanElements><tleParameters><EPHEMERIS_TYPE>0</EPHEMERIS_TYPE><CLASSIFICATION_TYPE>U</CLASSIFICATION_TYPE><NORAD_CAT_ID>40090</NORAD_CAT_ID><ELEMENT_SET_NO>999</ELEMENT_SET_NO><REV_AT_EPOCH>51114</REV_AT_EPOCH><BSTAR>.28418E-3</BSTAR><MEAN_MOTION_DOT>.1067E-4</MEAN_MOTION_DOT><MEAN_MOTION_DDOT>0</MEAN_MOTION_DDOT></tleParameters></data></segment></body></omm>

</ndm>
